[{"OBJECT_NAME":"STARLINK-3089","OBJECT_ID":"2021-082AN","EPOCH":"2026-03-09T21:50:52.295136","MEAN_MOTION":14.97521969,"ECCENTRICITY":0.00026147,"INCLINATION":69.9979,"RA_OF_ASC_NODE":274.6873,"ARG_OF_PERICENTER":268.4564,"MEAN_ANOMALY":91.6295,"EPHEMERIS_TYPE":0,"CLASSIFICATION_TYPE":"U","NORAD_CAT_ID":49166,"ELEMENT_SET_NO":999,"REV_AT_EPOCH":24768,"BSTAR":1.7192641e-5,"MEAN_MOTION_DOT":1.09e-6,"MEAN_MOTION_DDOT":0},{"OBJECT_NAME":"SICH-1","OBJECT_ID":"1995-046A","EPOCH":"2026-03-09T16:32:37.076064","MEAN_MOTION":14.94365961,"ECCENTRICITY":0.00171667,"INCLINATION":82.5243,"RA_OF_ASC_NODE":136.8069,"ARG_OF_PERICENTER":299.5667,"MEAN_ANOMALY":60.3842,"EPHEMERIS_TYPE":0,"CLASSIFICATION_TYPE":"U","NORAD_CAT_ID":23657,"ELEMENT_SET_NO":999,"REV_AT_EPOCH":65112,"BSTAR":0.0001874143,"MEAN_MOTION_DOT":2.046e-5,"MEAN_MOTION_DDOT":0}]
